[{"OBJECT_NAME":"STARLINK-30881","OBJECT_ID":"2023-171X","EPOCH":"2026-03-09T22:00:01.999584","MEAN_MOTION":15.25538753,"ECCENTRICITY":0.00013636,"INCLINATION":42.9995,"RA_OF_ASC_NODE":283.8799,"ARG_OF_PERICENTER":278.8594,"MEAN_ANOMALY":275.7646,"EPHEMERIS_TYPE":0,"CLASSIFICATION_TYPE":"U","NORAD_CAT_ID":58251,"ELEMENT_SET_NO":999,"REV_AT_EPOCH":573,"BSTAR":0.00095026678,"MEAN_MOTION_DOT":0.00024405,"MEAN_MOTION_DDOT":0},{"OBJECT_NAME":"IRIS-F3","OBJECT_ID":"2025-009L","EPOCH":"2026-03-09T04:59:06.478368","MEAN_MOTION":15.25132086,"ECCENTRICITY":0.00052431,"INCLINATION":97.4086,"RA_OF_ASC_NODE":149.9233,"ARG_OF_PERICENTER":320.9173,"MEAN_ANOMALY":39.1686,"EPHEMERIS_TYPE":0,"CLASSIFICATION_TYPE":"U","NORAD_CAT_ID":62619,"ELEMENT_SET_NO":999,"REV_AT_EPOCH":6357,"BSTAR":0.0007418705,"MEAN_MOTION_DOT":0.00018549,"MEAN_MOTION_DDOT":0}]
